     2              NAVIGATION DATA                         RINEX VERSION / TYPE
CCRINEXN V1.6.0 UX  CDDIS               19-NOV-16 23:39     PGM / RUN BY / DATE 
IGS BROADCAST EPHEMERIS FILE                                COMMENT             
    0.1118D-07 -0.1490D-07 -0.5960D-07  0.1192D-06          ION ALPHA           
    0.9830D+05 -0.1147D+06 -0.1966D+06  0.7209D+06          ION BETA            
   -0.931322574615D-09-0.444089209850D-14   147456     1924 DELTA-UTC: A0,A1,T,W
    17                                                      LEAP SECONDS        
                                                            END OF HEADER       
24 16 11 19  2  0  0.0-0.262991525233D-04-0.568434188608D-12 0.000000000000D+00
    0.350000000000D+02 0.802187500000D+02 0.462697844651D-08-0.299150808279D+01
    0.407546758652D-05 0.500124949031D-02 0.105164945126D-04 0.515372365379D+04
    0.525600000000D+06-0.726431608200D-07-0.218608365198D+01-0.968575477600D-07
    0.947598734377D+00 0.170656250000D+03 0.401121310278D+00-0.798318967475D-08
   -0.198579700213D-09 0.100000000000D+01 0.192300000000D+04 0.000000000000D+00
    0.200000000000D+01 0.000000000000D+00 0.232830643654D-08 0.350000000000D+02
    0.518400000000D+06 0.400000000000D+01 0.000000000000D+00 0.000000000000D+00
25 16 11 19  2  0  0.0-0.284532550722D-03-0.682121026330D-11 0.000000000000D+00
    0.230000000000D+02 0.723750000000D+02 0.435303846438D-08 0.121752366268D+01
    0.376254320145D-05 0.568964146078D-02 0.425614416599D-05 0.515367490387D+04
    0.525600000000D+06-0.186264514923D-07-0.110845292772D+01 0.856816768646D-07
    0.977877813405D+00 0.305062500000D+03 0.761123817416D+00-0.830784605514D-08
    0.116433421348D-09 0.100000000000D+01 0.192300000000D+04 0.000000000000D+00
    0.200000000000D+01 0.000000000000D+00 0.558793544769D-08 0.230000000000D+02
    0.518400000000D+06 0.400000000000D+01 0.000000000000D+00 0.000000000000D+00
26 16 11 19  2  0  0.0-0.502402428538D-03-0.432009983342D-11 0.000000000000D+00
    0.800000000000D+02 0.595625000000D+02 0.472483963065D-08 0.889094789795D+00
    0.311993062496D-05 0.124638539273D-02 0.404007732868D-05 0.515361342621D+04
    0.525600000000D+06-0.447034835815D-07-0.112052960320D+01-0.502914190292D-07
    0.959758301717D+00 0.296312500000D+03-0.212787830507D+00-0.838749247833D-08
    0.521450278790D-10 0.100000000000D+01 0.192300000000D+04 0.000000000000D+00
    0.280000000000D+01 0.000000000000D+00 0.745058059692D-08 0.800000000000D+02
    0.524730000000D+06 0.000000000000D+00 0.000000000000D+00 0.000000000000D+00
27 16 11 19  2  0  0.0 0.167452264577D-03 0.522959453519D-11 0.000000000000D+00
    0.300000000000D+02-0.759375000000D+02 0.428374986395D-08-0.110087041265D+01
   -0.395439565182D-05 0.394602981396D-02 0.456161797047D-05 0.515365637970D+04
    0.525600000000D+06 0.137835741043D-06-0.681221993916D-01-0.800937414169D-07
    0.973423416570D+00 0.300343750000D+03 0.310904076894D+00-0.812355266429D-08
   -0.200008331150D-09 0.100000000000D+01 0.192300000000D+04 0.000000000000D+00
    0.200000000000D+01 0.000000000000D+00 0.139698386192D-08 0.300000000000D+02
    0.518418000000D+06 0.400000000000D+01 0.000000000000D+00 0.000000000000D+00
28 16 11 19  2  0  0.0 0.568016897887D-03 0.272848410532D-11 0.000000000000D+00
    0.200000000000D+02 0.470625000000D+02 0.421231831711D-08-0.288643240155D+00
    0.257045030594D-05 0.201149388449D-01 0.389665365219D-05 0.515363270950D+04
    0.525600000000D+06-0.225380063057D-06-0.103184094512D+01 0.122934579849D-06
    0.989065941698D+00 0.323437500000D+03-0.160070759603D+01-0.845356641069D-08
    0.123219418298D-09 0.100000000000D+01 0.192300000000D+04 0.000000000000D+00
    0.200000000000D+01 0.000000000000D+00-0.111758708954D-07 0.200000000000D+02
    0.518418000000D+06 0.400000000000D+01 0.000000000000D+00 0.000000000000D+00
29 16 11 19  2  0  0.0 0.642858445644D-03-0.170530256582D-11 0.000000000000D+00
    0.770000000000D+02-0.943125000000D+02 0.422839041515D-08 0.101757234876D+01
   -0.493042171001D-05 0.506564625539D-03 0.474788248539D-05 0.515371738243D+04
    0.525600000000D+06 0.745058059692D-08-0.732624546467D-02 0.689178705216D-07
    0.979539868282D+00 0.297593750000D+03-0.875686216646D-01-0.811569519414D-08
   -0.217509060125D-09 0.100000000000D+01 0.192300000000D+04 0.000000000000D+00
    0.200000000000D+01 0.000000000000D+00-0.102445483208D-07 0.770000000000D+02
    0.518400000000D+06 0.400000000000D+01 0.000000000000D+00 0.000000000000D+00
30 16 11 19  2  0  0.0 0.157412141561D-03 0.909494701773D-12 0.000000000000D+00
    0.740000000000D+02 0.757187500000D+02 0.472448250795D-08 0.233977703541D+01
    0.396184623241D-05 0.237946258858D-02 0.930391252041D-05 0.515375281525D+04
    0.525600000000D+06-0.242143869400D-07-0.209423908169D+01 0.763684511185D-07
    0.950250931708D+00 0.196906250000D+03-0.313251983316D+01-0.810033741157D-08
   -0.939324840936D-10 0.100000000000D+01 0.192300000000D+04 0.000000000000D+00
    0.200000000000D+01 0.000000000000D+00 0.372529029846D-08 0.740000000000D+02
    0.518400000000D+06 0.000000000000D+00 0.000000000000D+00 0.000000000000D+00
31 16 11 19  2  0  0.0 0.235930085182D-03-0.216004991671D-11 0.000000000000D+00
    0.930000000000D+02 0.675312500000D+02 0.420446077953D-08 0.219402263776D+01
    0.377185642719D-05 0.846436223946D-02 0.105109065771D-04 0.515360433769D+04
    0.525600000000D+06 0.242143869400D-07-0.212576269585D+01 0.149011611938D-06
    0.969289116451D+00 0.179843750000D+03-0.352761015832D+00-0.783496911794D-08
   -0.262868088408D-09 0.100000000000D+01 0.192300000000D+04 0.000000000000D+00
    0.200000000000D+01 0.000000000000D+00-0.135041773319D-07 0.930000000000D+02
    0.519240000000D+06 0.000000000000D+00 0.000000000000D+00 0.000000000000D+00
32 16 11 19  2  0  0.0-0.204459298402D-03-0.165982783074D-10 0.000000000000D+00
    0.880000000000D+02 0.268750000000D+01 0.486127404997D-08-0.504326665379D+00
    0.184401869774D-06 0.607262714766D-03 0.754371285438D-05 0.515366083336D+04
    0.525600000000D+06-0.242143869400D-07 0.307135415887D+01-0.186264514923D-08
    0.959123455250D+00 0.234093750000D+03-0.255348514233D+01-0.813033906866D-08
   -0.285369033959D-09 0.100000000000D+01 0.192300000000D+04 0.000000000000D+00
    0.200000000000D+01 0.000000000000D+00 0.465661287308D-09 0.880000000000D+02
    0.518430000000D+06 0.000000000000D+00 0.000000000000D+00 0.000000000000D+00
 3 16 11 19  3 59 44.0-0.989483669400D-04-0.193267624127D-11 0.000000000000D+00
    0.120000000000D+02 0.139062500000D+02 0.462769276198D-08 0.267046057081D+01
    0.771135091782D-06 0.368354259990D-03 0.797212123871D-05 0.515357433510D+04
    0.532784000000D+06 0.279396772385D-07 0.203126485006D+01-0.204890966415D-07
    0.959147610954D+00 0.224718750000D+03 0.838861296043D+00-0.803712049261D-08
    0.346443002170D-09 0.100000000000D+01 0.192300000000D+04 0.000000000000D+00
    0.200000000000D+01 0.000000000000D+00 0.186264514923D-08 0.120000000000D+02
    0.527940000000D+06 0.400000000000D+01 0.000000000000D+00 0.000000000000D+00
 4 16 11 19  3 59 44.0 0.174045562744D-04 0.306954461848D-11 0.000000000000D+00
    0.700000000000D+01-0.184375000000D+01 0.456769026263D-08 0.130584068251D+01
   -0.219792127609D-06 0.831435003784D-02 0.754557549953D-05 0.515373981094D+04
    0.532784000000D+06 0.165775418282D-06-0.309243912400D+01-0.109896063805D-06
    0.966372743909D+00 0.236250000000D+03-0.956897512748D+00-0.798426114795D-08
   -0.358943522867D-09 0.100000000000D+01 0.192300000000D+04 0.000000000000D+00
    0.200000000000D+01 0.630000000000D+02-0.419095158577D-08 0.700000000000D+01
    0.531780000000D+06 0.000000000000D+00 0.000000000000D+00 0.000000000000D+00
10 16 11 19  3 59 44.0-0.114591326565D-03-0.136424205266D-11 0.000000000000D+00
    0.200000000000D+01 0.109062500000D+02 0.471412493365D-08 0.200075038020D+01
    0.610947608948D-06 0.189525075257D-02 0.784173607826D-05 0.515367309952D+04
    0.532784000000D+06-0.372529029846D-08 0.202740846780D+01 0.428408384323D-07
    0.959349976411D+00 0.225937500000D+03-0.294367042314D+01-0.806533595362D-08
    0.369658254893D-09 0.100000000000D+01 0.192300000000D+04 0.000000000000D+00
    0.200000000000D+01 0.000000000000D+00 0.232830643654D-08 0.200000000000D+01
    0.530070000000D+06 0.400000000000D+01 0.000000000000D+00 0.000000000000D+00
13 16 11 19  3 59 44.0-0.556269660592D-04-0.193267624127D-11 0.000000000000D+00
    0.100000000000D+02 0.312500000000D+00 0.442554148442D-08-0.186628091798D+01
    0.949949026108D-07 0.402764568571D-02 0.794604420662D-05 0.515368519783D+04
    0.532784000000D+06-0.335276126862D-07-0.309083549514D+01 0.109896063805D-06
    0.970852067406D+00 0.231875000000D+03 0.189776686346D+01-0.790461497323D-08
   -0.359300680601D-09 0.100000000000D+01 0.192300000000D+04 0.000000000000D+00
    0.200000000000D+01 0.000000000000D+00-0.111758708954D-07 0.100000000000D+02
    0.529518000000D+06 0.400000000000D+01 0.000000000000D+00 0.000000000000D+00
16 16 11 19  3 59 44.0 0.161086209118D-04 0.159161572810D-11 0.000000000000D+00
    0.500000000000D+01 0.619375000000D+02 0.407874134467D-08 0.858229403922D+00
    0.341981649399D-05 0.876912241802D-02 0.438652932644D-05 0.515360312271D+04
    0.532784000000D+06 0.223517417908D-07-0.103666522470D+01 0.465661287308D-07
    0.990315809166D+00 0.306937500000D+03 0.380972628811D+00-0.817712653145D-08
    0.532165041200D-10 0.100000000000D+01 0.192300000000D+04 0.000000000000D+00
    0.200000000000D+01 0.000000000000D+00-0.102445483208D-07 0.500000000000D+01
    0.529470000000D+06 0.000000000000D+00 0.000000000000D+00 0.000000000000D+00
